CCSDS_OEM_VERS = 1.0
CREATION_DATE  = 2017-05-11T11:45:37
ORIGINATOR     = GMAT USER

META_START
OBJECT_NAME          = MOPSSat_alt_35785_km_RAAN_180_155
OBJECT_ID            = SatId
CENTER_NAME          = Earth
REF_FRAME            = EME2000
TIME_SYSTEM          = UTC
START_TIME           = 2017-01-01T00:00:00.000
USEABLE_START_TIME   = 2017-01-01T00:00:00.000
USEABLE_STOP_TIME    = 2017-01-02T00:00:00.000
STOP_TIME            = 2017-01-02T00:00:00.000
INTERPOLATION        = Lagrange
INTERPOLATION_DEGREE = 7 
META_STOP


                                                                                   

2017-01-01T14:21:40.000   5.950263239483125e+04   1.496644655263415e+04  -1.314709805198715e+03  -8.687889582419437e-01   1.660885219877227e+00  -1.454147750196605e-01
2017-01-01T14:21:50.000   5.949393937429941e+04   1.498305411334939e+04  -1.316163839632450e+03  -8.698151594669017e-01   1.660626866294077e+00  -1.453921067405378e-01
2017-01-01T14:22:00.000   5.948523609132726e+04   1.499965908898949e+04  -1.317617647248408e+03  -8.708414287799825e-01   1.660368171370548e+00  -1.453694085328743e-01
2017-01-01T14:22:10.000   5.947652254523762e+04   1.501626147613144e+04  -1.319071227746461e+03  -8.718677662591315e-01   1.660109134949082e+00  -1.453466803828579e-01
2017-01-01T14:22:20.000   5.946779873544188e+04   1.503286127118262e+04  -1.320524580811631e+03  -8.728941719718760e-01   1.659849756874535e+00  -1.453239222768887e-01
2017-01-01T14:22:30.000   5.945906466132592e+04   1.504945847059543e+04  -1.321977706132887e+03  -8.739206459886237e-01   1.659590036990785e+00  -1.453011342012806e-01
2017-01-01T14:22:40.000   5.945032032229492e+04   1.506605307078273e+04  -1.323430603395729e+03  -8.749471883774249e-01   1.659329975142056e+00  -1.452783161423786e-01
2017-01-01T14:22:50.000   5.944156571757604e+04   1.508264506849232e+04  -1.324883272314984e+03  -8.759737992271375e-01   1.659069571167064e+00  -1.452554680860434e-01
2017-01-01T14:23:00.000   5.943280084641564e+04   1.509923446043238e+04  -1.326335712602013e+03  -8.770004786242640e-01   1.658808824904864e+00  -1.452325900181665e-01
2017-01-01T14:23:10.000   5.942402570803485e+04   1.511582124335623e+04  -1.327787923972126e+03  -8.780272266581847e-01   1.658547736193544e+00  -1.452096819245540e-01
2017-01-01T14:23:20.000   5.941524030174178e+04   1.513240541384713e+04  -1.329239906125743e+03  -8.790540434078719e-01   1.658286304873549e+00  -1.451867437912191e-01
2017-01-01T14:23:30.000   5.940644462684876e+04   1.514898696847816e+04  -1.330691658762394e+03  -8.800809289517506e-01   1.658024530785228e+00  -1.451637756041665e-01
2017-01-01T14:23:40.000   5.939763868267152e+04   1.516556590381202e+04  -1.332143181580700e+03  -8.811078833677038e-01   1.657762413768807e+00  -1.451407773493903e-01
2017-01-01T14:23:50.000   5.938882246861530e+04   1.518214221624201e+04  -1.333594474264451e+03  -8.821349067231887e-01   1.657499953666958e+00  -1.451177490130992e-01
2017-01-01T14:24:00.000   5.937999598405982e+04   1.519871590220641e+04  -1.335045536501374e+03  -8.831619990885446e-01   1.657237150321362e+00  -1.450946905814148e-01
2017-01-01T14:24:10.000   5.937115922840487e+04   1.521528695810235e+04  -1.336496367975592e+03  -8.841891605316526e-01   1.656974003574080e+00  -1.450716020404923e-01
2017-01-01T14:24:20.000   5.936231220086805e+04   1.523185538066604e+04  -1.337946968400917e+03  -8.852163911415027e-01   1.656710513261517e+00  -1.450484833759908e-01
2017-01-01T14:24:30.000   5.935345490068760e+04   1.524842116659158e+04  -1.339397337487473e+03  -8.862436910045660e-01   1.656446679220474e+00  -1.450253345736037e-01
2017-01-01T14:24:40.000   5.934458732707031e+04   1.526498431262935e+04  -1.340847474950312e+03  -8.872710602108952e-01   1.656182501286584e+00  -1.450021556189227e-01
2017-01-01T14:24:50.000   5.933570947933177e+04   1.528154481532125e+04  -1.342297380486233e+03  -8.882984988377252e-01   1.655917979298494e+00  -1.449789464978033e-01
2017-01-01T14:25:00.000   5.932682135678073e+04   1.529810267121929e+04  -1.343747053792918e+03  -8.893260069630055e-01   1.655653113094427e+00  -1.449557071960640e-01
2017-01-01T14:25:10.000   5.931792295874487e+04   1.531465787683670e+04  -1.345196494564656e+03  -8.903535846623784e-01   1.655387902512938e+00  -1.449324376995528e-01
2017-01-01T14:25:20.000   5.930901428456458e+04   1.533121042866145e+04  -1.346645702493523e+03  -8.913812320099957e-01   1.655122347392736e+00  -1.449091379941310e-01
2017-01-01T14:25:30.000   5.930009533358322e+04   1.534776032317251e+04  -1.348094677270806e+03  -8.924089490795480e-01   1.654856447572394e+00  -1.448858080656481e-01
2017-01-01T14:25:40.000   5.929116610514421e+04   1.536430755684590e+04  -1.349543418587536e+03  -8.934367359446307e-01   1.654590202890261e+00  -1.448624478999340e-01
2017-01-01T14:25:50.000   5.928222659855933e+04   1.538085212621385e+04  -1.350991926139665e+03  -8.944645926824218e-01   1.654323613183516e+00  -1.448390574827157e-01
2017-01-01T14:26:00.000   5.927327681312965e+04   1.539739402782537e+04  -1.352440199624610e+03  -8.954925193712308e-01   1.654056678288789e+00  -1.448156367996726e-01
2017-01-01T14:26:10.000   5.926431674814557e+04   1.541393325824617e+04  -1.353888238741255e+03  -8.965205160905005e-01   1.653789398042167e+00  -1.447921858364360e-01
2017-01-01T14:26:20.000   5.925534640286508e+04   1.543046981409801e+04  -1.355336043193387e+03  -8.975485829232575e-01   1.653521772278538e+00  -1.447687045785324e-01
2017-01-01T14:26:30.000   5.924636577654603e+04   1.544700369199966e+04  -1.356783612684534e+03  -8.985767199524394e-01   1.653253800832562e+00  -1.447451930114682e-01
2017-01-01T14:26:40.000   5.923737486844963e+04   1.546353488856091e+04  -1.358230946917435e+03  -8.996049272605162e-01   1.652985483538767e+00  -1.447216511207382e-01
2017-01-01T14:26:50.000   5.922837367784853e+04   1.548006340036597e+04  -1.359678045592593e+03  -9.006332049284764e-01   1.652716820231796e+00  -1.446980788918473e-01
2017-01-01T14:27:00.000   5.921936220403498e+04   1.549658922396045e+04  -1.361124908407127e+03  -9.016615530349963e-01   1.652447810746643e+00  -1.446744763103316e-01
2017-01-01T14:27:10.000   5.921034044629393e+04   1.551311235589985e+04  -1.362571535059025e+03  -9.026899716594696e-01   1.652178454917857e+00  -1.446508433616876e-01
2017-01-01T14:27:20.000   5.920130840402287e+04   1.552963279253214e+04  -1.364017925228104e+03  -9.037184608684456e-01   1.651908752583122e+00  -1.446271800316876e-01
2017-01-01T14:27:30.000   5.919226607658686e+04   1.554615053026134e+04  -1.365464078599086e+03  -9.047470207320616e-01   1.651638703578922e+00  -1.446034863059981e-01
2017-01-01T14:27:40.000   5.918321346337235e+04   1.556266556544941e+04  -1.366909994853014e+03  -9.057756513179305e-01   1.651368307742149e+00  -1.445797621703219e-01
2017-01-01T14:27:50.000   5.917415056357900e+04   1.557917789479622e+04  -1.368355673700515e+03  -9.068043527148013e-01   1.651097564903890e+00  -1.445560076098519e-01
2017-01-01T14:28:00.000   5.916507737642725e+04   1.559568751496055e+04  -1.369801114848615e+03  -9.078331250089637e-01   1.650826474895618e+00  -1.445322226098154e-01
2017-01-01T14:28:10.000   5.915599390111143e+04   1.561219442264600e+04  -1.371246318008267e+03  -9.088619682895893e-01   1.650555037547798e+00  -1.445084071553512e-01
2017-01-01T14:28:20.000   5.914690013691603e+04   1.562869861438687e+04  -1.372691282875600e+03  -9.098908826354181e-01   1.650283252693353e+00  -1.444845612318138e-01
2017-01-01T14:28:30.000   5.913779608312985e+04   1.564520008670717e+04  -1.374136009145844e+03  -9.109198681246422e-01   1.650011120165102e+00  -1.444606848245489e-01
2017-01-01T14:28:40.000   5.912868173904528e+04   1.566169883612059e+04  -1.375580496513321e+03  -9.119489248349082e-01   1.649738639795745e+00  -1.444367779188910e-01
2017-01-01T14:28:50.000   5.911955710404746e+04   1.567819485897210e+04  -1.377024744657585e+03  -9.129780528334129e-01   1.649465811420525e+00  -1.444128405003984e-01
2017-01-01T14:29:00.000   5.911042217749492e+04   1.569468815165137e+04  -1.378468753262103e+03  -9.140072521902420e-01   1.649192634873650e+00  -1.443888725545389e-01
2017-01-01T14:29:10.000   5.910127695876631e+04   1.571117871050864e+04  -1.379912522006886e+03  -9.150365229731146e-01   1.648919109989708e+00  -1.443648740668127e-01
2017-01-01T14:29:20.000   5.909212144705420e+04   1.572766653222687e+04  -1.381356050601081e+03  -9.160658652706113e-01   1.648645236597481e+00  -1.443408450222118e-01
2017-01-01T14:29:30.000   5.908295564157127e+04   1.574415161344956e+04  -1.382799338750375e+03  -9.170952791689480e-01   1.648371014526125e+00  -1.443167854057602e-01
2017-01-01T14:29:40.000   5.907377954150383e+04   1.576063395086496e+04  -1.384242386164374e+03  -9.181247647572256e-01   1.648096443603772e+00  -1.442926952023924e-01
2017-01-01T14:29:50.000   5.906459314612933e+04   1.577711354099220e+04  -1.385685192537880e+03  -9.191543221141065e-01   1.647821523661043e+00  -1.442685743972613e-01
2017-01-01T14:30:00.000   5.905539645472940e+04   1.579359038034019e+04  -1.387127757564795e+03  -9.201839513177041e-01   1.647546254528455e+00  -1.442444229755109e-01
2017-01-01T14:30:10.000   5.904618946658957e+04   1.581006446540740e+04  -1.388570080938112e+03  -9.212136524455855e-01   1.647270636036402e+00  -1.442202409222741e-01
2017-01-01T14:30:20.000   5.903697218108891e+04   1.582653579252392e+04  -1.390012162336077e+03  -9.222434255648614e-01   1.646994668017850e+00  -1.441960282229099e-01
2017-01-01T14:30:30.000   5.902774459757964e+04   1.584300435806437e+04  -1.391454001440838e+03  -9.232732707455320e-01   1.646718350304728e+00  -1.441717848626859e-01
2017-01-01T14:30:40.000   5.901850671543521e+04   1.585947015836240e+04  -1.392895597930957e+03  -9.243031880551298e-01   1.646441682729365e+00  -1.441475108269053e-01
